start=new Date('2023-02-03T00:00:00.000Z').valueOf();
sats=[{"LAUNCH_DATE":"2021-03-14","TLE_LINE2":"2 47861  53.0561 306.1173 0001331  84.4059 275.7081 15.06392895105720","SEMIMAJOR_AXIS":"6925.370","RA_OF_ASC_NODE":"306.1173","ARG_OF_PERICENTER":"84.4059","EPOCH":"2023-02-02T04:30:38.608704","OBJECT_ID":"2021-021B","NORAD_CAT_ID":"47861","APOAPSIS":"548.157","MEAN_MOTION":"15.06392895","EPHEMERIS_TYPE":"0","GP_ID":"224239150","BSTAR":"0.00001885700000","PERIOD":"95.593","ELEMENT_SET_NO":"999","REF_FRAME":"TEME","MEAN_MOTION_DDOT":"0.0000000000000","COUNTRY_CODE":"US","FILE":"3768366","SITE":"AFETR","INCLINATION":"53.0561","RCS_SIZE":"LARGE","CENTER_NAME":"EARTH","TIME_SYSTEM":"UTC","ECCENTRICITY":"0.00013310","REV_AT_EPOCH":"10572","PERIAPSIS":"546.314","MEAN_ELEMENT_THEORY":"SGP4","MEAN_MOTION_DOT":"-0.00000001","OBJECT_TYPE":"PAYLOAD","CLASSIFICATION_TYPE":"U","OBJECT_NAME":"STARLINK-2280","TLE_LINE1":"1 47861U 21021B   23033.18794686 -.00000001  00000-0  18857-4 0  9997","MEAN_ANOMALY":"275.7081","DECAY_DATE":null},{"REF_FRAME":"TEME","MEAN_MOTION_DDOT":"0.0000000000000","COUNTRY_CODE":"US","FILE":"3769109","SITE":"AFETR","INCLINATION":"53.0527","RCS_SIZE":"LARGE","TIME_SYSTEM":"UTC","CENTER_NAME":"EARTH","REV_AT_EPOCH":"10543","ECCENTRICITY":"0.00014560","PERIAPSIS":"546.253","MEAN_ELEMENT_THEORY":"SGP4","MEAN_MOTION_DOT":"-0.00001446","OBJECT_TYPE":"PAYLOAD","CLASSIFICATION_TYPE":"U","OBJECT_NAME":"STARLINK-2291","MEAN_ANOMALY":"257.0748","TLE_LINE1":"1 47862U 21021C   23034.03065708 -.00001446  00000-0 -78210-4 0  9993","DECAY_DATE":null,"LAUNCH_DATE":"2021-03-14","TLE_LINE2":"2 47862  53.0527 297.3505 0001456 103.0403 257.0748 15.06384451105432","SEMIMAJOR_AXIS":"6925.396","RA_OF_ASC_NODE":"297.3505","ARG_OF_PERICENTER":"103.0403","EPOCH":"2023-02-03T00:44:08.771712","OBJECT_ID":"2021-021C","NORAD_CAT_ID":"47862","APOAPSIS":"548.270","MEAN_MOTION":"15.06384451","EPHEMERIS_TYPE":"0","GP_ID":"224261143","BSTAR":"-0.00007821000000","ELEMENT_SET_NO":"999","PERIOD":"95.593"},{"PERIOD":"95.592","ELEMENT_SET_NO":"999","GP_ID":"224261162","BSTAR":"-0.00005213800000","NORAD_CAT_ID":"47863","APOAPSIS":"548.208","MEAN_MOTION":"15.06399036","EPHEMERIS_TYPE":"0","OBJECT_ID":"2021-021D","ARG_OF_PERICENTER":"99.8761","EPOCH":"2023-02-02T18:57:47.100672","TLE_LINE2":"2 47863  53.0540 308.4249 0001432  99.8761 260.2390 15.06399036105254","SEMIMAJOR_AXIS":"6925.352","RA_OF_ASC_NODE":"308.4249","LAUNCH_DATE":"2021-03-14","CLASSIFICATION_TYPE":"U","OBJECT_NAME":"STARLINK-2293","TLE_LINE1":"1 47863U 21021D   23033.79012848 -.00001058  00000-0 -52138-4 0  9993","MEAN_ANOMALY":"260.2390","DECAY_DATE":null,"MEAN_MOTION_DOT":"-0.00001058","OBJECT_TYPE":"PAYLOAD","MEAN_ELEMENT_THEORY":"SGP4","REV_AT_EPOCH":"10525","ECCENTRICITY":"0.00014320","PERIAPSIS":"546.225","RCS_SIZE":"LARGE","CENTER_NAME":"EARTH","TIME_SYSTEM":"UTC","INCLINATION":"53.0540","FILE":"3769110","SITE":"AFETR","MEAN_MOTION_DDOT":"0.0000000000000","REF_FRAME":"TEME","COUNTRY_CODE":"US"},{"ECCENTRICITY":"0.00016780","REV_AT_EPOCH":"10576","PERIAPSIS":"546.060","MEAN_ELEMENT_THEORY":"SGP4","MEAN_MOTION_DOT":"-0.00000562","OBJECT_TYPE":"PAYLOAD","OBJECT_NAME":"STARLINK-2304","TLE_LINE1":"1 47864U 21021E   23033.17182131 -.00000562  00000-0 -18835-4 0  9994","MEAN_ANOMALY":"270.7022","DECAY_DATE":null,"CLASSIFICATION_TYPE":"U","MEAN_MOTION_DDOT":"0.0000000000000","REF_FRAME":"TEME","COUNTRY_CODE":"US","SITE":"AFETR","FILE":"3768366","INCLINATION":"53.0521","TIME_SYSTEM":"UTC","CENTER_NAME":"EARTH","RCS_SIZE":"LARGE","APOAPSIS":"548.384","MEAN_MOTION":"15.06397331","EPHEMERIS_TYPE":"0","NORAD_CAT_ID":"47864","BSTAR":"-0.00001883500000","GP_ID":"224240890","PERIOD":"95.592","ELEMENT_SET_NO":"999","LAUNCH_DATE":"2021-03-14","RA_OF_ASC_NODE":"301.2551","TLE_LINE2":"2 47864  53.0521 301.2551 0001678  89.4159 270.7022 15.06397331105769","SEMIMAJOR_AXIS":"6925.357","EPOCH":"2023-02-02T04:07:25.361184","ARG_OF_PERICENTER":"89.4159","OBJECT_ID":"2021-021E"},{"EPOCH":"2023-02-03T00:41:25.562112","ARG_OF_PERICENTER":"95.9823","OBJECT_ID":"2021-021F","LAUNCH_DATE":"2021-03-14","RA_OF_ASC_NODE":"307.3514","TLE_LINE2":"2 47865  53.0513 307.3514 0001398  95.9823 264.1325 15.06408716105309","SEMIMAJOR_AXIS":"6925.322","PERIOD":"95.592","ELEMENT_SET_NO":"999","EPHEMERIS_TYPE":"0","APOAPSIS":"548.155","MEAN_MOTION":"15.06408716","NORAD_CAT_ID":"47865","BSTAR":"0.00038771000000","GP_ID":"224261202","INCLINATION":"53.0513","CENTER_NAME":"EARTH","TIME_SYSTEM":"UTC","RCS_SIZE":"LARGE","COUNTRY_CODE":"US","MEAN_MOTION_DDOT":"0.0000000000000","REF_FRAME":"TEME","SITE":"AFETR","FILE":"3769112","OBJECT_TYPE":"PAYLOAD","MEAN_MOTION_DOT":"0.00005499","TLE_LINE1":"1 47865U 21021F   23034.02876808  .00005499  00000-0  38771-3 0  9993","DECAY_DATE":null,"MEAN_ANOMALY":"264.1325","OBJECT_NAME":"STARLINK-2310","CLASSIFICATION_TYPE":"U","PERIAPSIS":"546.219","REV_AT_EPOCH":"10530","ECCENTRICITY":"0.00013980","MEAN_ELEMENT_THEORY":"SGP4"},{"OBJECT_ID":"2021-021G","ARG_OF_PERICENTER":"97.3594","EPOCH":"2023-02-03T00:48:05.559552","SEMIMAJOR_AXIS":"6925.329","TLE_LINE2":"2 47866  53.0536 307.3375 0001372  97.3594 262.7551 15.06406424105302","RA_OF_ASC_NODE":"307.3375","LAUNCH_DATE":"2021-03-14","PERIOD":"95.592","ELEMENT_SET_NO":"999","GP_ID":"224261706","BSTAR":"0.00027655000000","NORAD_CAT_ID":"47866","EPHEMERIS_TYPE":"0","APOAPSIS":"548.144","MEAN_MOTION":"15.06406424","RCS_SIZE":"LARGE","TIME_SYSTEM":"UTC","CENTER_NAME":"EARTH","INCLINATION":"53.0536","FILE":"3769113","SITE":"AFETR","COUNTRY_CODE":"US","MEAN_MOTION_DDOT":"0.0000000000000","REF_FRAME":"TEME","CLASSIFICATION_TYPE":"U","MEAN_ANOMALY":"262.7551","TLE_LINE1":"1 47866U 21021G   23034.03339768  .00003841  00000-0  27655-3 0  9992","DECAY_DATE":null,"OBJECT_NAME":"STARLINK-2320","OBJECT_TYPE":"PAYLOAD","MEAN_MOTION_DOT":"0.00003841","MEAN_ELEMENT_THEORY":"SGP4","PERIAPSIS":"546.244","ECCENTRICITY":"0.00013720","REV_AT_EPOCH":"10530"},{"NORAD_CAT_ID":"47867","MEAN_MOTION":"15.06398598","APOAPSIS":"548.050","EPHEMERIS_TYPE":"0","GP_ID":"224250405","BSTAR":"0.00002126900000","PERIOD":"95.592","ELEMENT_SET_NO":"999","LAUNCH_DATE":"2021-03-14","TLE_LINE2":"2 47867  53.0520 298.5587 0001202  94.8249 265.2878 15.06398598105406","SEMIMAJOR_AXIS":"6925.353","RA_OF_ASC_NODE":"298.5587","ARG_OF_PERICENTER":"94.8249","EPOCH":"2023-02-02T18:16:39.091584","OBJECT_ID":"2021-021H","ECCENTRICITY":"0.00012020","REV_AT_EPOCH":"10540","PERIAPSIS":"546.385","MEAN_ELEMENT_THEORY":"SGP4","MEAN_MOTION_DOT":"0.00000035","OBJECT_TYPE":"PAYLOAD","CLASSIFICATION_TYPE":"U","OBJECT_NAME":"STARLINK-2321","TLE_LINE1":"1 47867U 21021H   23033.76156356  .00000035  00000-0  21269-4 0  9990","MEAN_ANOMALY":"265.2878","DECAY_DATE":null,"REF_FRAME":"TEME","MEAN_MOTION_DDOT":"0.0000000000000","COUNTRY_CODE":"US","FILE":"3768648","SITE":"AFETR","INCLINATION":"53.0520","RCS_SIZE":"LARGE","CENTER_NAME":"EARTH","TIME_SYSTEM":"UTC"},{"REV_AT_EPOCH":"10613","ECCENTRICITY":"0.00013690","PERIAPSIS":"546.266","MEAN_ELEMENT_THEORY":"SGP4","MEAN_MOTION_DOT":"0.00000375","OBJECT_TYPE":"PAYLOAD","CLASSIFICATION_TYPE":"U","OBJECT_NAME":"STARLINK-2323","TLE_LINE1":"1 47868U 21021J   23033.95415348  .00000375  00000-0  44057-4 0  9998","DECAY_DATE":null,"MEAN_ANOMALY":"270.3353","MEAN_MOTION_DDOT":"0.0000000000000","REF_FRAME":"TEME","COUNTRY_CODE":"US","FILE":"3769113","SITE":"AFETR","INCLINATION":"53.0509","RCS_SIZE":"LARGE","TIME_SYSTEM":"UTC","CENTER_NAME":"EARTH","NORAD_CAT_ID":"47868","APOAPSIS":"548.162","EPHEMERIS_TYPE":"0","MEAN_MOTION":"15.06399764","GP_ID":"224261710","BSTAR":"0.00004405700000","ELEMENT_SET_NO":"999","PERIOD":"95.592","LAUNCH_DATE":"2021-03-14","TLE_LINE2":"2 47868  53.0509 247.6908 0001369  89.7792 270.3353 15.06399764106138","SEMIMAJOR_AXIS":"6925.349","RA_OF_ASC_NODE":"247.6908","ARG_OF_PERICENTER":"89.7792","EPOCH":"2023-02-02T22:53:58.860672","OBJECT_ID":"2021-021J"},{"OBJECT_TYPE":"PAYLOAD","MEAN_MOTION_DOT":"0.00002672","MEAN_ANOMALY":"266.7135","TLE_LINE1":"1 47869U 21021K   23034.02326221  .00002672  00000-0  19816-3 0  9995","DECAY_DATE":null,"OBJECT_NAME":"STARLINK-2324","CLASSIFICATION_TYPE":"U","PERIAPSIS":"546.339","ECCENTRICITY":"0.00012390","REV_AT_EPOCH":"10544","MEAN_ELEMENT_THEORY":"SGP4","INCLINATION":"53.0542","TIME_SYSTEM":"UTC","CENTER_NAME":"EARTH","RCS_SIZE":"LARGE","COUNTRY_CODE":"US","REF_FRAME":"TEME","MEAN_MOTION_DDOT":"0.0000000000000","SITE":"AFETR","FILE":"3769115","ELEMENT_SET_NO":"999","PERIOD":"95.592","APOAPSIS":"548.055","MEAN_MOTION":"15.06405282","EPHEMERIS_TYPE":"0","NORAD_CAT_ID":"47869","BSTAR":"0.00019816000000","GP_ID":"224261229","EPOCH":"2023-02-03T00:33:29.854944","ARG_OF_PERICENTER":"93.3996","OBJECT_ID":"2021-021K","LAUNCH_DATE":"2021-03-14","RA_OF_ASC_NODE":"297.3749","TLE_LINE2":"2 47869  53.0542 297.3749 0001239  93.3996 266.7135 15.06405282105447","SEMIMAJOR_AXIS":"6925.332"},{"OBJECT_ID":"2021-021L","EPOCH":"2023-02-02T04:17:21.477984","ARG_OF_PERICENTER":"103.7441","RA_OF_ASC_NODE":"326.1719","TLE_LINE2":"2 47870  53.0538 326.1719 0001303 103.7441 256.3693 15.06407012105330","SEMIMAJOR_AXIS":"6925.327","LAUNCH_DATE":"2021-03-14","ELEMENT_SET_NO":"999","PERIOD":"95.592","BSTAR":"0.00015237000000","GP_ID":"224239897","MEAN_MOTION":"15.06407012","APOAPSIS":"548.094","EPHEMERIS_TYPE":"0","NORAD_CAT_ID":"47870","TIME_SYSTEM":"UTC","CENTER_NAME":"EARTH","RCS_SIZE":"LARGE","INCLINATION":"53.0538","SITE":"AFETR","FILE":"3768366","COUNTRY_CODE":"US","REF_FRAME":"TEME","MEAN_MOTION_DDOT":"0.0000000000000","TLE_LINE1":"1 47870U 21021L   23033.17872081  .00001989  00000-0  15237-3 0  9995","DECAY_DATE":null,"MEAN_ANOMALY":"256.3693","OBJECT_NAME":"STARLINK-2326","CLASSIFICATION_TYPE":"U","OBJECT_TYPE":"PAYLOAD","MEAN_MOTION_DOT":"0.00001989","MEAN_ELEMENT_THEORY":"SGP4","PERIAPSIS":"546.290","REV_AT_EPOCH":"10533","ECCENTRICITY":"0.00013030"}];
